sat05702
1 05702U 63014CU  20046.33591030  .00000182  00000-0  25037-1 0  9993
2 05702  86.7433  31.4055 1513312 204.1630 148.0392  8.71576983224893
